[{"OBJECT_NAME":"ONEWEB-0528","OBJECT_ID":"2022-166B","EPOCH":"2026-05-28T19:09:37.755360","MEAN_MOTION":13.21826219,"ECCENTRICITY":0.0001733,"INCLINATION":87.9256,"RA_OF_ASC_NODE":247.8569,"ARG_OF_PERICENTER":99.6811,"MEAN_ANOMALY":260.4518,"EPHEMERIS_TYPE":0,"CLASSIFICATION_TYPE":"U","NORAD_CAT_ID":54643,"ELEMENT_SET_NO":999,"REV_AT_EPOCH":16898,"BSTAR":-5.5111e-05,"MEAN_MOTION_DOT":-1e-07,"MEAN_MOTION_DDOT":0.0},{"OBJECT_NAME":"ONEWEB-0539","OBJECT_ID":"2022-166C","EPOCH":"2026-05-29T05:10:22.435680","MEAN_MOTION":13.2182571,"ECCENTRICITY":0.0002112,"INCLINATION":87.9264,"RA_OF_ASC_NODE":247.7446,"ARG_OF_PERICENTER":94.9993,"MEAN_ANOMALY":265.1381,"EPHEMERIS_TYPE":0,"CLASSIFICATION_TYPE":"U","NORAD_CAT_ID":54644,"ELEMENT_SET_NO":999,"REV_AT_EPOCH":16903,"BSTAR":0.00029687999999999996,"MEAN_MOTION_DOT":1.36e-06,"MEAN_MOTION_DDOT":0.0},{"OBJECT_NAME":"ONEWEB-0540","OBJECT_ID":"2022-166D","EPOCH":"2026-05-29T05:20:15.479232","MEAN_MOTION":13.21825532,"ECCENTRICITY":0.000209,"INCLINATION":87.9255,"RA_OF_ASC_NODE":247.7745,"ARG_OF_PERICENTER":97.7929,"MEAN_ANOMALY":262.3442,"EPHEMERIS_TYPE":0,"CLASSIFICATION_TYPE":"U","NORAD_CAT_ID":54645,"ELEMENT_SET_NO":999,"REV_AT_EPOCH":16902,"BSTAR":0.00010493,"MEAN_MOTION_DOT":5.6e-07,"MEAN_MOTION_DDOT":0.0},{"OBJECT_NAME":"ONEWEB-0542","OBJECT_ID":"2022-166E","EPOCH":"2026-05-29T05:24:54.556416","MEAN_MOTION":13.21825604,"ECCENTRICITY":0.000221,"INCLINATION":87.9266,"RA_OF_ASC_NODE":247.741,"ARG_OF_PERICENTER":94.2053,"MEAN_ANOMALY":265.9333,"EPHEMERIS_TYPE":0,"CLASSIFICATION_TYPE":"U","NORAD_CAT_ID":54646,"ELEMENT_SET_NO":999,"REV_AT_EPOCH":16903,"BSTAR":0.00025754,"MEAN_MOTION_DOT":1.19e-06,"MEAN_MOTION_DDOT":0.0},{"OBJECT_NAME":"ONEWEB-0545","OBJECT_ID":"2022-166F","EPOCH":"2026-05-29T04:34:02.491968","MEAN_MOTION":13.21827558,"ECCENTRICITY":0.0002433,"INCLINATION":87.9256,"RA_OF_ASC_NODE":247.7616,"ARG_OF_PERICENTER":93.0288,"MEAN_ANOMALY":267.1124,"EPHEMERIS_TYPE":0,"CLASSIFICATION_TYPE":"U","NORAD_CAT_ID":54647,"ELEMENT_SET_NO":999,"REV_AT_EPOCH":16899,"BSTAR":8.7971e-05,"MEAN_MOTION_DOT":4.9e-07,"MEAN_MOTION_DDOT":0.0},{"OBJECT_NAME":"ONEWEB-0580","OBJECT_ID":"2022-166G","EPOCH":"2026-05-28T18:52:41.059776","MEAN_MOTION":13.21826348,"ECCENTRICITY":0.0002403,"INCLINATION":87.9257,"RA_OF_ASC_NODE":247.8412,"ARG_OF_PERICENTER":97.1639,"MEAN_ANOMALY":262.9768,"EPHEMERIS_TYPE":0,"CLASSIFICATION_TYPE":"U","NORAD_CAT_ID":54648,"ELEMENT_SET_NO":999,"REV_AT_EPOCH":16898,"BSTAR":-0.00012029,"MEAN_MOTION_DOT":-3.7e-07,"MEAN_MOTION_DDOT":0.0},{"OBJECT_NAME":"ONEWEB-0582","OBJECT_ID":"2022-166H","EPOCH":"2026-05-29T04:58:15.527424","MEAN_MOTION":13.21825567,"ECCENTRICITY":0.0002392,"INCLINATION":87.9255,"RA_OF_ASC_NODE":247.7504,"ARG_OF_PERICENTER":94.8171,"MEAN_ANOMALY":265.3236,"EPHEMERIS_TYPE":0,"CLASSIFICATION_TYPE":"U","NORAD_CAT_ID":54649,"ELEMENT_SET_NO":999,"REV_AT_EPOCH":16901,"BSTAR":0.00016094000000000001,"MEAN_MOTION_DOT":7.9e-07,"MEAN_MOTION_DDOT":0.0},{"OBJECT_NAME":"ONEWEB-0583","OBJECT_ID":"2022-166J","EPOCH":"2026-05-28T20:10:12.242208","MEAN_MOTION":13.21825015,"ECCENTRICITY":0.000209,"INCLINATION":87.9255,"RA_OF_ASC_NODE":247.8467,"ARG_OF_PERICENTER":98.2916,"MEAN_ANOMALY":261.8455,"EPHEMERIS_TYPE":0,"CLASSIFICATION_TYPE":"U","NORAD_CAT_ID":54650,"ELEMENT_SET_NO":999,"REV_AT_EPOCH":16897,"BSTAR":8.249100000000001e-05,"MEAN_MOTION_DOT":4.7e-07,"MEAN_MOTION_DDOT":0.0},{"OBJECT_NAME":"ONEWEB-0584","OBJECT_ID":"2022-166K","EPOCH":"2026-05-28T18:50:13.809984","MEAN_MOTION":13.21823622,"ECCENTRICITY":0.0002116,"INCLINATION":87.9254,"RA_OF_ASC_NODE":247.8437,"ARG_OF_PERICENTER":100.5291,"MEAN_ANOMALY":259.6082,"EPHEMERIS_TYPE":0,"CLASSIFICATION_TYPE":"U","NORAD_CAT_ID":54651,"ELEMENT_SET_NO":999,"REV_AT_EPOCH":16895,"BSTAR":0.00017449999999999999,"MEAN_MOTION_DOT":8.5e-07,"MEAN_MOTION_DDOT":0.0},{"OBJECT_NAME":"ONEWEB-0585","OBJECT_ID":"2022-166L","EPOCH":"2026-05-29T04:29:11.461344","MEAN_MOTION":13.21824936,"ECCENTRICITY":0.0001842,"INCLINATION":87.9257,"RA_OF_ASC_NODE":247.7501,"ARG_OF_PERICENTER":102.4106,"MEAN_ANOMALY":257.7234,"EPHEMERIS_TYPE":0,"CLASSIFICATION_TYPE":"U","NORAD_CAT_ID":54652,"ELEMENT_SET_NO":999,"REV_AT_EPOCH":16901,"BSTAR":-3.4521000000000004e-06,"MEAN_MOTION_DOT":1.2e-07,"MEAN_MOTION_DDOT":0.0},{"OBJECT_NAME":"ONEWEB-0586","OBJECT_ID":"2022-166M","EPOCH":"2026-05-28T19:43:31.887840","MEAN_MOTION":13.21827494,"ECCENTRICITY":0.0002114,"INCLINATION":87.9256,"RA_OF_ASC_NODE":247.8481,"ARG_OF_PERICENTER":96.4271,"MEAN_ANOMALY":263.7104,"EPHEMERIS_TYPE":0,"CLASSIFICATION_TYPE":"U","NORAD_CAT_ID":54653,"ELEMENT_SET_NO":999,"REV_AT_EPOCH":16896,"BSTAR":6.9027e-05,"MEAN_MOTION_DOT":4.2e-07,"MEAN_MOTION_DDOT":0.0},{"OBJECT_NAME":"ONEWEB-0587","OBJECT_ID":"2022-166N","EPOCH":"2026-05-29T05:03:05.160960","MEAN_MOTION":13.21827758,"ECCENTRICITY":0.0001712,"INCLINATION":87.9266,"RA_OF_ASC_NODE":247.7426,"ARG_OF_PERICENTER":107.3304,"MEAN_ANOMALY":252.8017,"EPHEMERIS_TYPE":0,"CLASSIFICATION_TYPE":"U","NORAD_CAT_ID":54654,"ELEMENT_SET_NO":999,"REV_AT_EPOCH":16917,"BSTAR":0.00018882,"MEAN_MOTION_DOT":9.1e-07,"MEAN_MOTION_DDOT":0.0},{"OBJECT_NAME":"ONEWEB-0589","OBJECT_ID":"2022-166P","EPOCH":"2026-05-29T04:43:42.078720","MEAN_MOTION":13.21827942,"ECCENTRICITY":0.0002819,"INCLINATION":87.9253,"RA_OF_ASC_NODE":247.7601,"ARG_OF_PERICENTER":93.111,"MEAN_ANOMALY":267.0347,"EPHEMERIS_TYPE":0,"CLASSIFICATION_TYPE":"U","NORAD_CAT_ID":54655,"ELEMENT_SET_NO":999,"REV_AT_EPOCH":16903,"BSTAR":3.1721000000000003e-05,"MEAN_MOTION_DOT":2.6e-07,"MEAN_MOTION_DDOT":0.0},{"OBJECT_NAME":"ONEWEB-0590","OBJECT_ID":"2022-166Q","EPOCH":"2026-05-29T05:19:51.746016","MEAN_MOTION":13.21825951,"ECCENTRICITY":0.0002303,"INCLINATION":87.9263,"RA_OF_ASC_NODE":247.7431,"ARG_OF_PERICENTER":110.0484,"MEAN_ANOMALY":250.0898,"EPHEMERIS_TYPE":0,"CLASSIFICATION_TYPE":"U","NORAD_CAT_ID":54656,"ELEMENT_SET_NO":999,"REV_AT_EPOCH":16902,"BSTAR":0.00017777000000000003,"MEAN_MOTION_DOT":8.6e-07,"MEAN_MOTION_DDOT":0.0},{"OBJECT_NAME":"ONEWEB-0591","OBJECT_ID":"2022-166R","EPOCH":"2026-05-28T18:43:00.067296","MEAN_MOTION":13.21824729,"ECCENTRICITY":0.0002032,"INCLINATION":87.9254,"RA_OF_ASC_NODE":247.8476,"ARG_OF_PERICENTER":101.5782,"MEAN_ANOMALY":258.558,"EPHEMERIS_TYPE":0,"CLASSIFICATION_TYPE":"U","NORAD_CAT_ID":54657,"ELEMENT_SET_NO":999,"REV_AT_EPOCH":16899,"BSTAR":0.00012106000000000001,"MEAN_MOTION_DOT":6.3e-07,"MEAN_MOTION_DDOT":0.0},{"OBJECT_NAME":"ONEWEB-0592","OBJECT_ID":"2022-166S","EPOCH":"2026-05-28T18:47:50.772192","MEAN_MOTION":13.2182468,"ECCENTRICITY":0.0001994,"INCLINATION":87.9263,"RA_OF_ASC_NODE":247.8234,"ARG_OF_PERICENTER":100.349,"MEAN_ANOMALY":259.7868,"EPHEMERIS_TYPE":0,"CLASSIFICATION_TYPE":"U","NORAD_CAT_ID":54658,"ELEMENT_SET_NO":999,"REV_AT_EPOCH":16887,"BSTAR":2.7163e-05,"MEAN_MOTION_DOT":2.4e-07,"MEAN_MOTION_DDOT":0.0},{"OBJECT_NAME":"ONEWEB-0593","OBJECT_ID":"2022-166T","EPOCH":"2026-05-28T19:19:19.288704","MEAN_MOTION":13.21826489,"ECCENTRICITY":0.0002031,"INCLINATION":87.9255,"RA_OF_ASC_NODE":247.8322,"ARG_OF_PERICENTER":95.8465,"MEAN_ANOMALY":264.29,"EPHEMERIS_TYPE":0,"CLASSIFICATION_TYPE":"U","NORAD_CAT_ID":54659,"ELEMENT_SET_NO":999,"REV_AT_EPOCH":16898,"BSTAR":-3.5063e-05,"MEAN_MOTION_DOT":-1e-08,"MEAN_MOTION_DDOT":0.0},{"OBJECT_NAME":"ONEWEB-0594","OBJECT_ID":"2022-166U","EPOCH":"2026-05-29T04:53:23.282880","MEAN_MOTION":13.21827488,"ECCENTRICITY":0.0001899,"INCLINATION":87.9253,"RA_OF_ASC_NODE":247.7694,"ARG_OF_PERICENTER":101.1274,"MEAN_ANOMALY":259.0073,"EPHEMERIS_TYPE":0,"CLASSIFICATION_TYPE":"U","NORAD_CAT_ID":54660,"ELEMENT_SET_NO":999,"REV_AT_EPOCH":16905,"BSTAR":1.4233000000000002e-05,"MEAN_MOTION_DOT":1.9e-07,"MEAN_MOTION_DDOT":0.0},{"OBJECT_NAME":"ONEWEB-0595","OBJECT_ID":"2022-166V","EPOCH":"2026-05-28T19:14:28.982976","MEAN_MOTION":13.21825491,"ECCENTRICITY":0.0001866,"INCLINATION":87.9262,"RA_OF_ASC_NODE":247.8284,"ARG_OF_PERICENTER":106.9983,"MEAN_ANOMALY":253.1356,"EPHEMERIS_TYPE":0,"CLASSIFICATION_TYPE":"U","NORAD_CAT_ID":54661,"ELEMENT_SET_NO":999,"REV_AT_EPOCH":16897,"BSTAR":-5.3862e-05,"MEAN_MOTION_DOT":-9e-08,"MEAN_MOTION_DDOT":0.0},{"OBJECT_NAME":"ONEWEB-0596","OBJECT_ID":"2022-166W","EPOCH":"2026-05-28T18:38:09.295008","MEAN_MOTION":13.21825112,"ECCENTRICITY":0.0001946,"INCLINATION":87.9256,"RA_OF_ASC_NODE":247.8462,"ARG_OF_PERICENTER":103.0312,"MEAN_ANOMALY":257.104,"EPHEMERIS_TYPE":0,"CLASSIFICATION_TYPE":"U","NORAD_CAT_ID":54662,"ELEMENT_SET_NO":999,"REV_AT_EPOCH":16897,"BSTAR":3.0577e-05,"MEAN_MOTION_DOT":2.6e-07,"MEAN_MOTION_DDOT":0.0},{"OBJECT_NAME":"ONEWEB-0597","OBJECT_ID":"2022-166X","EPOCH":"2026-05-29T05:05:31.394688","MEAN_MOTION":13.21825287,"ECCENTRICITY":0.000207,"INCLINATION":87.9254,"RA_OF_ASC_NODE":247.7629,"ARG_OF_PERICENTER":97.7874,"MEAN_ANOMALY":262.3495,"EPHEMERIS_TYPE":0,"CLASSIFICATION_TYPE":"U","NORAD_CAT_ID":54663,"ELEMENT_SET_NO":999,"REV_AT_EPOCH":16903,"BSTAR":0.00023255000000000001,"MEAN_MOTION_DOT":1.09e-06,"MEAN_MOTION_DDOT":0.0},{"OBJECT_NAME":"ONEWEB-0600","OBJECT_ID":"2022-166Y","EPOCH":"2026-05-29T04:38:51.721152","MEAN_MOTION":13.21827436,"ECCENTRICITY":0.0001918,"INCLINATION":87.9255,"RA_OF_ASC_NODE":247.7581,"ARG_OF_PERICENTER":94.4005,"MEAN_ANOMALY":265.7348,"EPHEMERIS_TYPE":0,"CLASSIFICATION_TYPE":"U","NORAD_CAT_ID":54664,"ELEMENT_SET_NO":999,"REV_AT_EPOCH":16900,"BSTAR":5.3184e-05,"MEAN_MOTION_DOT":3.5e-07,"MEAN_MOTION_DDOT":0.0},{"OBJECT_NAME":"ONEWEB-0601","OBJECT_ID":"2022-166Z","EPOCH":"2026-05-28T19:21:43.497216","MEAN_MOTION":13.21827602,"ECCENTRICITY":0.0002232,"INCLINATION":87.9253,"RA_OF_ASC_NODE":247.8512,"ARG_OF_PERICENTER":97.7804,"MEAN_ANOMALY":262.3583,"EPHEMERIS_TYPE":0,"CLASSIFICATION_TYPE":"U","NORAD_CAT_ID":54665,"ELEMENT_SET_NO":999,"REV_AT_EPOCH":16914,"BSTAR":8.5606e-06,"MEAN_MOTION_DOT":1.7e-07,"MEAN_MOTION_DDOT":0.0}]